{"type": "FeatureCollection", "features": [ {"type": "Feature", "properties": {"norad_id": 38755, "name": "SPOT 6", "group": "resource", "lat": 0.16787181850955124, "lon": 48.60291750836848, "alt_km": 700.7201497302249, "timestamp": "2025-12-09T18:55:16.895493+00:00", "meta": {"OBJECT_NAME": "SPOT 6", "OBJECT_ID": "2012-047A", "EPOCH": "2025-12-09T15:37:40.095264", "MEAN_MOTION": 14.58599738, "ECCENTRICITY": 0.00010805, "INCLINATION": 98.1572, "RA_OF_ASC_NODE": 48.4923, "ARG_OF_PERICENTER": 95.187, "MEAN_ANOMALY": 264.9453, "EPHEMERIS_TYPE": 0, "CLASSIFICATION_TYPE": "U", "NORAD_CAT_ID": 38755, "ELEMENT_SET_NO": 999, "REV_AT_EPOCH": 70542, "BSTAR": 0.00020431536, "MEAN_MOTION_DOT": 9.05e-06, "MEAN_MOTION_DDOT": 0}, "tle": {"line1": "1 38755U 12047A   25343.65115851  .00000905  00000+0  20432-3 0  9998", "line2": "2 38755  98.1572  48.4923 0001080  95.1870 264.9453 14.58599738705421"}}, "geometry": {"type": "Point", "coordinates": [48.60291750836848, 0.16787181850955124]}}, {"type": "Feature", "properties": {"norad_id": 39019, "name": "PLEIADES 1B", "group": "resource", "lat": -76.64814238788206, "lon": -160.8136492419827, "alt_km": 706.0672515879305, "timestamp": "2025-12-09T18:55:16.895503+00:00", "meta": {"OBJECT_NAME": "PLEIADES 1B", "OBJECT_ID": "2012-068A", "EPOCH": "2025-12-09T14:26:33.965664", "MEAN_MOTION": 14.58549133, "ECCENTRICITY": 0.00012457, "INCLINATION": 98.1794, "RA_OF_ASC_NODE": 56.3031, "ARG_OF_PERICENTER": 81.2042, "MEAN_ANOMALY": 278.9298, "EPHEMERIS_TYPE": 0, "CLASSIFICATION_TYPE": "U", "NORAD_CAT_ID": 39019, "ELEMENT_SET_NO": 999, "REV_AT_EPOCH": 69321, "BSTAR": 0.0002088753, "MEAN_MOTION_DOT": 9.25e-06, "MEAN_MOTION_DDOT": 0}, "tle": {"line1": "1 39019U 12068A   25343.60178201  .00000925  00000+0  20888-3 0  9995", "line2": "2 39019  98.1794  56.3031 0001245  81.2042 278.9298 14.58549133693218"}}, "geometry": {"type": "Point", "coordinates": [-160.8136492419827, -76.64814238788206]}}, {"type": "Feature", "properties": {"norad_id": 39030, "name": "GOKTURK 2", "group": "resource", "lat": -61.80575303018241, "lon": -159.81609106729627, "alt_km": 652.0545562568004, "timestamp": "2025-12-09T18:55:16.895514+00:00", "meta": {"OBJECT_NAME": "GOKTURK 2", "OBJECT_ID": "2012-073A", "EPOCH": "2025-12-09T14:19:19.930944", "MEAN_MOTION": 14.75284555, "ECCENTRICITY": 9.203e-05, "INCLINATION": 97.689, "RA_OF_ASC_NODE": 185.4046, "ARG_OF_PERICENTER": 102.0956, "MEAN_ANOMALY": 258.0357, "EPHEMERIS_TYPE": 0, "CLASSIFICATION_TYPE": "U", "NORAD_CAT_ID": 39030, "ELEMENT_SET_NO": 999, "REV_AT_EPOCH": 69655, "BSTAR": 0.00016578195, "MEAN_MOTION_DOT": 1.075e-05, "MEAN_MOTION_DDOT": 0}, "tle": {"line1": "1 39030U 12073A   25343.59675846  .00001075  00000+0  16578-3 0  9997", "line2": "2 39030  97.6890 185.4046 0000920 102.0956 258.0357 14.75284555696555"}}, "geometry": {"type": "Point", "coordinates": [-159.81609106729627, -61.80575303018241]}}, {"type": "Feature", "properties": {"norad_id": 39084, "name": "LANDSAT 8", "group": "resource", "lat": 80.21923850067684, "lon": -4.946824288426977, "alt_km": 694.3210231257135, "timestamp": "2025-12-09T18:55:16.895524+00:00", "meta": {"OBJECT_NAME": "LANDSAT 8", "OBJECT_ID": "2013-008A", "EPOCH": "2025-12-09T15:14:17.373984", "MEAN_MOTION": 14.57109735, "ECCENTRICITY": 0.00011204, "INCLINATION": 98.2075, "RA_OF_ASC_NODE": 51.7542, "ARG_OF_PERICENTER": 87.4694, "MEAN_ANOMALY": 272.6633, "EPHEMERIS_TYPE": 0, "CLASSIFICATION_TYPE": "U", "NORAD_CAT_ID": 39084, "ELEMENT_SET_NO": 999, "REV_AT_EPOCH": 67029, "BSTAR": 0.00018184084, "MEAN_MOTION_DOT": 7.74e-06, "MEAN_MOTION_DDOT": 0}, "tle": {"line1": "1 39084U 13008A   25343.63492331  .00000774  00000+0  18184-3 0  9996", "line2": "2 39084  98.2075  51.7542 0001120  87.4694 272.6633 14.57109735670298"}}, "geometry": {"type": "Point", "coordinates": [-4.946824288426977, 80.21923850067684]}}, {"type": "Feature", "properties": {"norad_id": 39086, "name": "SARAL", "group": "resource", "lat": -31.02734182988639, "lon": 172.9493860137546, "alt_km": 790.1680483906321, "timestamp": "2025-12-09T18:55:16.895535+00:00", "meta": {"OBJECT_NAME": "SARAL", "OBJECT_ID": "2013-009A", "EPOCH": "2025-12-09T14:02:22.446528", "MEAN_MOTION": 14.32755519, "ECCENTRICITY": 0.00028042, "INCLINATION": 98.5504, "RA_OF_ASC_NODE": 167.5566, "ARG_OF_PERICENTER": 114.7939, "MEAN_ANOMALY": 245.3537, "EPHEMERIS_TYPE": 0, "CLASSIFICATION_TYPE": "U", "NORAD_CAT_ID": 39086, "ELEMENT_SET_NO": 999, "REV_AT_EPOCH": 66845, "BSTAR": 0.00010570712, "MEAN_MOTION_DOT": 2.44e-06, "MEAN_MOTION_DDOT": 0}, "tle": {"line1": "1 39086U 13009A   25343.58498202  .00000244  00000+0  10571-3 0  9990", "line2": "2 39086  98.5504 167.5566 0002804 114.7939 245.3537 14.32755519668453"}}, "geometry": {"type": "Point", "coordinates": [172.9493860137546, -31.02734182988639]}}, {"type": "Feature", "properties": {"norad_id": 39150, "name": "GAOFEN-1", "group": "resource", "lat": 1.8229670597767949, "lon": 54.245498110723325, "alt_km": 654.0010427781717, "timestamp": "2025-12-09T18:55:16.895545+00:00", "meta": {"OBJECT_NAME": "GAOFEN-1", "OBJECT_ID": "2013-018A", "EPOCH": "2025-12-09T15:39:36.614304", "MEAN_MOTION": 14.76527469, "ECCENTRICITY": 0.00179701, "INCLINATION": 97.9327, "RA_OF_ASC_NODE": 54.3663, "ARG_OF_PERICENTER": 152.418, "MEAN_ANOMALY": 207.7987, "EPHEMERIS_TYPE": 0, "CLASSIFICATION_TYPE": "U", "NORAD_CAT_ID": 39150, "ELEMENT_SET_NO": 999, "REV_AT_EPOCH": 68027, "BSTAR": 0.00024809524, "MEAN_MOTION_DOT": 1.683e-05, "MEAN_MOTION_DDOT": 0}, "tle": {"line1": "1 39150U 13018A   25343.65250711  .00001683  00000+0  24810-3 0  9990", "line2": "2 39150  97.9327  54.3663 0017970 152.4180 207.7987 14.76527469680273"}}, "geometry": {"type": "Point", "coordinates": [54.245498110723325, 1.8229670597767949]}}, {"type": "Feature", "properties": {"norad_id": 39160, "name": "VNREDSAT 1", "group": "resource", "lat": -7.8088416827980165, "lon": -141.9297604764115, "alt_km": 681.612739570709, "timestamp": "2025-12-09T18:55:16.895555+00:00", "meta": {"OBJECT_NAME": "VNREDSAT 1", "OBJECT_ID": "2013-021B", "EPOCH": "2025-12-09T14:47:18.360672", "MEAN_MOTION": 14.64917007, "ECCENTRICITY": 0.00013319, "INCLINATION": 97.9372, "RA_OF_ASC_NODE": 39.0004, "ARG_OF_PERICENTER": 78.7949, "MEAN_ANOMALY": 281.3405, "EPHEMERIS_TYPE": 0, "CLASSIFICATION_TYPE": "U", "NORAD_CAT_ID": 39160, "ELEMENT_SET_NO": 999, "REV_AT_EPOCH": 67253, "BSTAR": 0.000272299, "MEAN_MOTION_DOT": 1.411e-05, "MEAN_MOTION_DDOT": 0}, "tle": {"line1": "1 39160U 13021B   25343.61618473  .00001411  00000+0  27230-3 0  9992", "line2": "2 39160  97.9372  39.0004 0001331  78.7949 281.3405 14.64917007672531"}}, "geometry": {"type": "Point", "coordinates": [-141.9297604764115, -7.8088416827980165]}}, {"type": "Feature", "properties": {"norad_id": 39227, "name": "ARIRANG-5 (KOMPSAT-5)", "group": "resource", "lat": -26.217802535995947, "lon": -15.642122225537484, "alt_km": 561.0149528267912, "timestamp": "2025-12-09T18:55:16.895565+00:00", "meta": {"OBJECT_NAME": "ARIRANG-5 (KOMPSAT-5)", "OBJECT_ID": "2013-042A", "EPOCH": "2025-12-09T14:48:53.143200", "MEAN_MOTION": 15.04483003, "ECCENTRICITY": 0.00039064, "INCLINATION": 97.6143, "RA_OF_ASC_NODE": 167.9665, "ARG_OF_PERICENTER": 63.55, "MEAN_ANOMALY": 296.6127, "EPHEMERIS_TYPE": 0, "CLASSIFICATION_TYPE": "U", "NORAD_CAT_ID": 39227, "ELEMENT_SET_NO": 999, "REV_AT_EPOCH": 67535, "BSTAR": 0.00010509689, "MEAN_MOTION_DOT": 1.41e-05, "MEAN_MOTION_DDOT": 0}, "tle": {"line1": "1 39227U 13042A   25343.61728175  .00001410  00000+0  10510-3 0  9992", "line2": "2 39227  97.6143 167.9665 0003906  63.5500 296.6127 15.04483003675359"}}, "geometry": {"type": "Point", "coordinates": [-15.642122225537484, -26.217802535995947]}}, {"type": "Feature", "properties": {"norad_id": 39418, "name": "SKYSAT-A", "group": "resource", "lat": 35.584228302884156, "lon": -140.5698073287614, "alt_km": 532.4357347952855, "timestamp": "2025-12-09T18:55:16.895575+00:00", "meta": {"OBJECT_NAME": "SKYSAT-A", "OBJECT_ID": "2013-066C", "EPOCH": "2025-12-09T13:31:05.608704", "MEAN_MOTION": 15.11566359, "ECCENTRICITY": 0.0020703, "INCLINATION": 97.4109, "RA_OF_ASC_NODE": 33.8681, "ARG_OF_PERICENTER": 248.505, "MEAN_ANOMALY": 111.3974, "EPHEMERIS_TYPE": 0, "CLASSIFICATION_TYPE": "U", "NORAD_CAT_ID": 39418, "ELEMENT_SET_NO": 999, "REV_AT_EPOCH": 65982, "BSTAR": 0.0003728932, "MEAN_MOTION_DOT": 6.295e-05, "MEAN_MOTION_DDOT": 0}, "tle": {"line1": "1 39418U 13066C   25343.56325936  .00006295  00000+0  37289-3 0  9990", "line2": "2 39418  97.4109  33.8681 0020703 248.5050 111.3974 15.11566359659820"}}, "geometry": {"type": "Point", "coordinates": [-140.5698073287614, 35.584228302884156]}}, {"type": "Feature", "properties": {"norad_id": 39419, "name": "DUBAISAT-2", "group": "resource", "lat": -38.98196796625964, "lon": -19.638962606011187, "alt_km": 540.4291434868874, "timestamp": "2025-12-09T18:55:16.895585+00:00", "meta": {"OBJECT_NAME": "DUBAISAT-2", "OBJECT_ID": "2013-066D", "EPOCH": "2025-12-09T14:19:07.204224", "MEAN_MOTION": 15.08306086, "ECCENTRICITY": 0.00109864, "INCLINATION": 97.4449, "RA_OF_ASC_NODE": 334.1006, "ARG_OF_PERICENTER": 332.4224, "MEAN_ANOMALY": 27.6421, "EPHEMERIS_TYPE": 0, "CLASSIFICATION_TYPE": "U", "NORAD_CAT_ID": 39419, "ELEMENT_SET_NO": 999, "REV_AT_EPOCH": 65779, "BSTAR": 0.00040352325, "MEAN_MOTION_DOT": 6.208e-05, "MEAN_MOTION_DDOT": 0}, "tle": {"line1": "1 39419U 13066D   25343.59661116  .00006208  00000+0  40352-3 0  9996", "line2": "2 39419  97.4449 334.1006 0010986 332.4224  27.6421 15.08306086657799"}}, "geometry": {"type": "Point", "coordinates": [-19.638962606011187, -38.98196796625964]}}]}